[
    {
        "Altitude(m)": 705010.0041105531,
        "Argument of Periapsis(deg)": 0.0034170363559881197,
        "Eccentricity": 0.0,
        "Inclination(deg)": 45.0,
        "Latitude(deg)": 34.27513632185179,
        "Longitude(deg)": 77.46541999777273,
        "Mean Anomaly(deg)": 52.550864994244264,
        "RAAN(deg)": 134.99677441756256,
        "Satellite Name": "Constellation 1 597",
        "Satellite Number": 597,
        "Semi-Major Axis(m)": 7083131.272910544,
        "Time(s)": 57
    },
    {
        "Altitude(m)": 705015.9781513485,
        "Argument of Periapsis(deg)": 0.003476984362233526,
        "Eccentricity": 0.0,
        "Inclination(deg)": 45.0,
        "Latitude(deg)": 34.306804271988725,
        "Longitude(deg)": 77.52398233501313,
        "Mean Anomaly(deg)": 52.611566134494126,
        "RAAN(deg)": 134.99671782839695,
        "Satellite Name": "Constellation 1 597",
        "Satellite Number": 597,
        "Semi-Major Axis(m)": 7083131.272910544,
        "Time(s)": 58
    },
    {
        "Altitude(m)": 705021.951496408,
        "Argument of Periapsis(deg)": 0.003536932368478932,
        "Eccentricity": 0.0,
        "Inclination(deg)": 45.0,
        "Latitude(deg)": 34.338439981286676,
        "Longitude(deg)": 77.58259151940157,
        "Mean Anomaly(deg)": 52.67226727474404,
        "RAAN(deg)": 134.9966612392314,
        "Satellite Name": "Constellation 1 597",
        "Satellite Number": 597,
        "Semi-Major Axis(m)": 7083131.272910544,
        "Time(s)": 59
    },
    {
        "Altitude(m)": 705027.9241073655,
        "Argument of Periapsis(deg)": 0.003596880374724337,
        "Eccentricity": 0.0,
        "Inclination(deg)": 45.0,
        "Latitude(deg)": 34.37004338809112,
        "Longitude(deg)": 77.64124793033582,
        "Mean Anomaly(deg)": 52.73296841499395,
        "RAAN(deg)": 134.99660465006582,
        "Satellite Name": "Constellation 1 597",
        "Satellite Number": 597,
        "Semi-Major Axis(m)": 7083131.272910544,
        "Time(s)": 60
    },
    {
        "Altitude(m)": 705033.8959458739,
        "Argument of Periapsis(deg)": 0.0036568283809697427,
        "Eccentricity": 0.0,
        "Inclination(deg)": 45.0,
        "Latitude(deg)": 34.401614430679956,
        "Longitude(deg)": 77.69995144274536,
        "Mean Anomaly(deg)": 52.793669555243866,
        "RAAN(deg)": 134.99654806090027,
        "Satellite Name": "Constellation 1 597",
        "Satellite Number": 597,
        "Semi-Major Axis(m)": 7083131.272910544,
        "Time(s)": 61
    },
    {
        "Altitude(m)": 705039.866973621,
        "Argument of Periapsis(deg)": 0.003716776387215149,
        "Eccentricity": 0.0,
        "Inclination(deg)": 45.0,
        "Latitude(deg)": 34.43315304726421,
        "Longitude(deg)": 77.75870209947946,
        "Mean Anomaly(deg)": 52.85437069549373,
        "RAAN(deg)": 134.99649147173471,
        "Satellite Name": "Constellation 1 597",
        "Satellite Number": 597,
        "Semi-Major Axis(m)": 7083131.272910544,
        "Time(s)": 62
    },
    {
        "Altitude(m)": 705045.8371523056,
        "Argument of Periapsis(deg)": 0.003776724393460554,
        "Eccentricity": 0.0,
        "Inclination(deg)": 45.0,
        "Latitude(deg)": 34.46465917598806,
        "Longitude(deg)": 77.81749994320879,
        "Mean Anomaly(deg)": 52.91507183574364,
        "RAAN(deg)": 134.9964348825691,
        "Satellite Name": "Constellation 1 597",
        "Satellite Number": 597,
        "Semi-Major Axis(m)": 7083131.272910544,
        "Time(s)": 63
    },
    {
        "Altitude(m)": 705051.8064436371,
        "Argument of Periapsis(deg)": 0.003836672399705959,
        "Eccentricity": 0.0,
        "Inclination(deg)": 45.0,
        "Latitude(deg)": 34.49613275492886,
        "Longitude(deg)": 77.87634501642388,
        "Mean Anomaly(deg)": 52.97577297599355,
        "RAAN(deg)": 134.99637829340355,
        "Satellite Name": "Constellation 1 597",
        "Satellite Number": 597,
        "Semi-Major Axis(m)": 7083131.272910544,
        "Time(s)": 64
    },
    {
        "Altitude(m)": 705057.7748093589,
        "Argument of Periapsis(deg)": 0.003896620405951365,
        "Eccentricity": 0.0,
        "Inclination(deg)": 45.0,
        "Latitude(deg)": 34.52757372209738,
        "Longitude(deg)": 77.93523736143429,
        "Mean Anomaly(deg)": 53.03647411624343,
        "RAAN(deg)": 134.99632170423797,
        "Satellite Name": "Constellation 1 597",
        "Satellite Number": 597,
        "Semi-Major Axis(m)": 7083131.272910544,
        "Time(s)": 65
    },
    {
        "Altitude(m)": 705063.7422112367,
        "Argument of Periapsis(deg)": 0.003956568412196771,
        "Eccentricity": 0.0,
        "Inclination(deg)": 45.0,
        "Latitude(deg)": 34.558982015437905,
        "Longitude(deg)": 77.99417702036735,
        "Mean Anomaly(deg)": 53.097175256493344,
        "RAAN(deg)": 134.99626511507242,
        "Satellite Name": "Constellation 1 597",
        "Satellite Number": 597,
        "Semi-Major Axis(m)": 7083131.272910544,
        "Time(s)": 66
    },
    {
        "Altitude(m)": 705069.708611047,
        "Argument of Periapsis(deg)": 0.004016516418442176,
        "Eccentricity": 0.0,
        "Inclination(deg)": 45.0,
        "Latitude(deg)": 34.59035757282834,
        "Longitude(deg)": 78.05316386706971,
        "Mean Anomaly(deg)": 53.15787639674323,
        "RAAN(deg)": 134.99620852590687,
        "Satellite Name": "Constellation 1 597",
        "Satellite Number": 597,
        "Semi-Major Axis(m)": 7083131.272910544,
        "Time(s)": 67
    },
    {
        "Altitude(m)": 705075.673970588,
        "Argument of Periapsis(deg)": 0.004076464424687581,
        "Eccentricity": 0.0,
        "Inclination(deg)": 45.0,
        "Latitude(deg)": 34.62170033208067,
        "Longitude(deg)": 78.11219827949522,
        "Mean Anomaly(deg)": 53.21857753699314,
        "RAAN(deg)": 134.99615193674126,
        "Satellite Name": "Constellation 1 597",
        "Satellite Number": 597,
        "Semi-Major Axis(m)": 7083131.272910544,
        "Time(s)": 68
    },
    {
        "Altitude(m)": 705081.6382516935,
        "Argument of Periapsis(deg)": 0.004136412430932987,
        "Eccentricity": 0.0,
        "Inclination(deg)": 45.0,
        "Latitude(deg)": 34.65301023094061,
        "Longitude(deg)": 78.17128013112018,
        "Mean Anomaly(deg)": 53.279278677243035,
        "RAAN(deg)": 134.9960953475757,
        "Satellite Name": "Constellation 1 597",
        "Satellite Number": 597,
        "Semi-Major Axis(m)": 7083131.272910544,
        "Time(s)": 69
    },
    {
        "Altitude(m)": 705087.6014162003,
        "Argument of Periapsis(deg)": 0.004196360437178394,
        "Eccentricity": 0.0,
        "Inclination(deg)": 45.0,
        "Latitude(deg)": 34.684287207088104,
        "Longitude(deg)": 78.23040946333123,
        "Mean Anomaly(deg)": 53.339979817492946,
        "RAAN(deg)": 134.99603875841012,
        "Satellite Name": "Constellation 1 597",
        "Satellite Number": 597,
        "Semi-Major Axis(m)": 7083131.272910544,
        "Time(s)": 70
    },
    {
        "Altitude(m)": 705093.563425978,
        "Argument of Periapsis(deg)": 0.004256308443423799,
        "Eccentricity": 0.0,
        "Inclination(deg)": 45.0,
        "Latitude(deg)": 34.715531198137384,
        "Longitude(deg)": 78.28958631732681,
        "Mean Anomaly(deg)": 53.4006809577428,
        "RAAN(deg)": 134.99598216924457,
        "Satellite Name": "Constellation 1 597",
        "Satellite Number": 597,
        "Semi-Major Axis(m)": 7083131.272910544,
        "Time(s)": 71
    },
    {
        "Altitude(m)": 705099.5242429166,
        "Argument of Periapsis(deg)": 0.004316256449669204,
        "Eccentricity": 0.0,
        "Inclination(deg)": 45.0,
        "Latitude(deg)": 34.746742141637135,
        "Longitude(deg)": 78.34881073411617,
        "Mean Anomaly(deg)": 53.46138209799271,
        "RAAN(deg)": 134.995925580079,
        "Satellite Name": "Constellation 1 597",
        "Satellite Number": 597,
        "Semi-Major Axis(m)": 7083131.272910544,
        "Time(s)": 72
    },
    {
        "Altitude(m)": 705105.4838289215,
        "Argument of Periapsis(deg)": 0.00437620445591461,
        "Eccentricity": 0.0,
        "Inclination(deg)": 45.0,
        "Latitude(deg)": 34.77791997507064,
        "Longitude(deg)": 78.40808275451784,
        "Mean Anomaly(deg)": 53.52208323824262,
        "RAAN(deg)": 134.99586899091344,
        "Satellite Name": "Constellation 1 597",
        "Satellite Number": 597,
        "Semi-Major Axis(m)": 7083131.272910544,
        "Time(s)": 73
    },
    {
        "Altitude(m)": 705111.4421459293,
        "Argument of Periapsis(deg)": 0.004436152462160016,
        "Eccentricity": 0.0,
        "Inclination(deg)": 45.0,
        "Latitude(deg)": 34.80906463585589,
        "Longitude(deg)": 78.46740225106164,
        "Mean Anomaly(deg)": 53.58278437849253,
        "RAAN(deg)": 134.99581240174786,
        "Satellite Name": "Constellation 1 597",
        "Satellite Number": 597,
        "Semi-Major Axis(m)": 7083131.272910544,
        "Time(s)": 74
    },
    {
        "Altitude(m)": 705117.399155894,
        "Argument of Periapsis(deg)": 0.0044961004684054215,
        "Eccentricity": 0.0,
        "Inclination(deg)": 45.0,
        "Latitude(deg)": 34.84017606134603,
        "Longitude(deg)": 78.52676960037599,
        "Mean Anomaly(deg)": 53.64348551874243,
        "RAAN(deg)": 134.99575581258227,
        "Satellite Name": "Constellation 1 597",
        "Satellite Number": 597,
        "Semi-Major Axis(m)": 7083131.272910544,
        "Time(s)": 75
    }
]